NORAD_CAT_ID,OBJECT_NAME,OBJECT_TYPE,EPOCH,MEAN_MOTION,ECCENTRICITY,INCLINATION,RA_OF_ASC_NODE,ARG_OF_PERICENTER,MEAN_ANOMALY,BSTAR,MEAN_MOTION_DOT,MEAN_MOTION_DDOT,TLE_LINE0,TLE_LINE1,TLE_LINE2,SEMIMAJOR_AXIS,PERIOD,APOGEE,PERIGEE,DECAYED
51799.0,STARLINK-3637,PAYLOAD,2023-08-29 05:41:17,15.0884682,0.0001286,53.217,174.6582,97.7494,262.3644,0.00011299,1.511e-05,0.0,0 STARLINK-3637,1 51799U 22017AH  23241.23700427  .00001511  00000-0  11299-3 0  9993,2 51799  53.2170 174.6582 0001286  97.7494 262.3644 15.08846820 84518,6917.86,95.437,540.614,538.835,0.0
51799.0,STARLINK-3637,PAYLOAD,2023-08-30 00:45:55,15.08838877,0.0001528,53.2176,171.0933,105.1195,254.9966,-9.4658e-05,-1.794e-05,0.0,0 STARLINK-3637,1 51799U 22017AH  23242.03189522 -.00001794  00000-0 -94658-4 0  9995,2 51799  53.2176 171.0933 0001528 105.1195 254.9966 15.08838877 84636,6917.884,95.438,540.806,538.692,0.0
51799.0,STARLINK-3637,PAYLOAD,2023-08-30 11:53:37,15.08840821,0.0001386,53.217,169.0104,91.1054,269.0096,-0.00011069,-2.049e-05,0.0,0 STARLINK-3637,1 51799U 22017AH  23242.49557362 -.00002049  00000-0 -11069-3 0  9994,2 51799  53.2170 169.0104 0001386  91.1054 269.0096 15.08840821 84708,6917.878,95.438,540.702,538.784,0.0
51799.0,STARLINK-3637,PAYLOAD,2023-08-31 02:12:05,15.08838418,0.0001419,53.2176,166.3367,104.5037,255.6113,6.4504e-05,7.39e-06,0.0,0 STARLINK-3637,1 51799U 22017AH  23243.09173191  .00000739  00000-0  64504-4 0  9990,2 51799  53.2176 166.3367 0001419 104.5037 255.6113 15.08838418 84791,6917.885,95.438,540.732,538.769,0.0
51799.0,STARLINK-3637,PAYLOAD,2023-08-31 05:22:51,15.08844576,0.0001262,53.2171,165.7391,96.7349,263.3786,6.5294e-05,7.52e-06,0.0,0 STARLINK-3637,1 51799U 22017AH  23243.22420792  .00000752  00000-0  65294-4 0  9999,2 51799  53.2171 165.7391 0001262  96.7349 263.3786 15.08844576 84817,6917.866,95.437,540.604,538.858,0.0
51799.0,STARLINK-3637,PAYLOAD,2023-09-01 11:35:11,15.08823769,0.000134,53.2174,160.0933,100.2104,259.9039,0.00045504,6.958e-05,0.0,0 STARLINK-3637,1 51799U 22017AH  23244.48277556  .00006958  00000-0  45504-3 0  9991,2 51799  53.2174 160.0933 0001340 100.2104 259.9039 15.08823769 85002,6917.93,95.439,540.722,538.868,0.0
51799.0,STARLINK-3637,PAYLOAD,2023-09-02 00:18:14,15.08897582,0.0001198,53.2173,157.7128,266.0009,94.0847,-0.00080613,-0.00013115,0.0,0 STARLINK-3637,1 51799U 22017AH  23245.01266320 -.00013115  00000-0 -80613-3 0  9993,2 51799  53.2173 157.7128 0001198 266.0009  94.0847 15.08897582 85083,6917.704,95.434,540.398,538.741,0.0
51799.0,STARLINK-3637,PAYLOAD,2023-09-02 03:29:02,15.0885401,0.0001333,53.2174,157.1156,82.9889,277.1255,0.00011546,1.551e-05,0.0,0 STARLINK-3637,1 51799U 22017AH  23245.14516383  .00001551  00000-0  11546-3 0  9992,2 51799  53.2174 157.1156 0001333  82.9889 277.1255 15.08854010 85100,6917.838,95.437,540.625,538.78,0.0
51799.0,STARLINK-3637,PAYLOAD,2023-09-03 00:09:03,15.08841579,0.0001189,53.2167,153.2493,89.4472,270.6656,3.2217e-05,2.25e-06,0.0,0 STARLINK-3637,1 51799U 22017AH  23246.00629281  .00000225  00000-0  32217-4 0  9996,2 51799  53.2167 153.2493 0001189  89.4472 270.6656 15.08841579 85235,6917.876,95.437,540.563,538.918,0.0
51799.0,STARLINK-3637,PAYLOAD,2023-09-03 11:16:45,15.08839772,0.0001186,53.2165,151.1676,86.108,274.0048,1.6369e-05,-2.7e-07,0.0,0 STARLINK-3637,1 51799U 22017AH  23246.46997427 -.00000027  00000-0  16369-4 0  9997,2 51799  53.2165 151.1676 0001186  86.1080 274.0048 15.08839772 85302,6917.881,95.438,540.567,538.926,0.0
51799.0,STARLINK-3637,PAYLOAD,2023-09-04 03:10:37,15.08840969,0.0001507,53.2177,148.1936,84.5562,275.5602,-6.4952e-05,-1.322e-05,0.0,0 STARLINK-3637,1 51799U 22017AH  23247.13237805 -.00001322  00000-0 -64952-4 0  9990,2 51799  53.2177 148.1936 0001507  84.5562 275.5602 15.08840969 85407,6917.877,95.437,540.785,538.7,0.0
51799.0,STARLINK-3637,PAYLOAD,2023-09-04 11:07:33,15.08839982,0.0001407,53.2175,146.7069,83.2906,276.8246,-6.5856e-05,-1.336e-05,0.0,0 STARLINK-3637,1 51799U 22017AH  23247.46357832 -.00001336  00000-0 -65856-4 0  9998,2 51799  53.2175 146.7069 0001407  83.2906 276.8246 15.08839982 85459,6917.88,95.438,540.719,538.772,0.0
51799.0,STARLINK-3637,PAYLOAD,2023-09-05 03:01:24,15.08838314,0.0001371,53.2169,143.7328,89.5932,270.5218,9.1566e-05,1.17e-05,0.0,0 STARLINK-3637,1 51799U 22017AH  23248.12597695  .00001170  00000-0  91566-4 0  9996,2 51799  53.2169 143.7328 0001371  89.5932 270.5218 15.08838314 85554,6917.886,95.438,540.699,538.802,0.0
51799.0,STARLINK-3637,PAYLOAD,2023-09-05 17:19:53,15.08817353,0.0001323,53.2171,141.0571,92.2443,267.87,0.00037978,5.758e-05,0.0,0 STARLINK-3637,1 51799U 22017AH  23248.72214245  .00005758  00000-0  37978-3 0  9991,2 51799  53.2171 141.0571 0001323  92.2443 267.8700 15.08817353 85648,6917.95,95.439,540.73,538.899,0.0
51799.0,STARLINK-3637,PAYLOAD,2023-09-06 02:52:11,15.08845001,0.0001346,53.2171,139.2727,87.2688,272.8458,0.00011982,1.62e-05,0.0,0 STARLINK-3637,1 51799U 22017AH  23249.11957288  .00001620  00000-0  11982-3 0  9997,2 51799  53.2171 139.2727 0001346  87.2688 272.8458 15.08845001 85704,6917.865,95.437,540.661,538.799,0.0
51799.0,STARLINK-3637,PAYLOAD,2023-09-07 01:07:35,15.08840488,0.0001173,53.2171,135.1096,89.1705,270.9422,1.1918e-05,-9.8e-07,0.0,0 STARLINK-3637,1 51799U 22017AH  23250.04693964 -.00000098  00000-0  11918-4 0  9998,2 51799  53.2171 135.1096 0001173  89.1705 270.9422 15.08840488 85846,6917.879,95.438,540.555,538.932,0.0
51799.0,STARLINK-3637,PAYLOAD,2023-09-08 02:33:45,15.0884235,0.0001205,53.2171,130.3526,95.2121,264.9008,1.8011e-05,-1e-08,0.0,0 STARLINK-3637,1 51799U 22017AH  23251.10677850 -.00000001  00000-0  18011-4 0  9997,2 51799  53.2171 130.3526 0001205  95.2121 264.9008 15.08842350 86009,6917.873,95.437,540.572,538.905,0.0
51799.0,STARLINK-3637,PAYLOAD,2023-09-08 20:03:00,15.08835774,0.000104,53.2171,127.0817,94.2656,265.8455,3.5921e-05,2.84e-06,0.0,0 STARLINK-3637,1 51799U 22017AH  23251.83542340  .00000284  00000-0  35921-4 0  9993,2 51799  53.2171 127.0817 0001040  94.2656 265.8455 15.08835774 86114,6917.893,95.438,540.478,539.039,0.0
51799.0,STARLINK-3637,PAYLOAD,2023-09-08 23:13:46,15.08839018,0.0001157,53.2173,126.4876,82.774,277.3383,6.9457e-05,8.18e-06,0.0,0 STARLINK-3637,1 51799U 22017AH  23251.96790148  .00000818  00000-0  69457-4 0  9992,2 51799  53.2173 126.4876 0001157  82.7740 277.3383 15.08839018 86134,6917.883,95.438,540.549,538.948,0.0
51799.0,STARLINK-3637,PAYLOAD,2023-09-10 00:39:56,15.0884934,0.0001343,53.2177,121.7272,68.6164,291.4972,6.9581e-05,8.2e-06,0.0,0 STARLINK-3637,1 51799U 22017AH  23253.02773786  .00000820  00000-0  69581-4 0  9991,2 51799  53.2177 121.7272 0001343  68.6164 291.4972 15.08849340 86293,6917.852,95.437,540.646,538.788,0.0
51799.0,STARLINK-3637,PAYLOAD,2023-09-10 19:44:34,15.08841432,0.0001076,53.2169,118.1631,88.027,272.0845,1.1813e-05,-1e-06,0.0,0 STARLINK-3637,1 51799U 22017AH  23253.82262390 -.00000100  00000-0  11813-4 0  9990,2 51799  53.2169 118.1631 0001076  88.0270 272.0845 15.08841432 86412,6917.876,95.437,540.485,538.997,0.0
51799.0,STARLINK-3637,PAYLOAD,2023-09-11 08:27:39,15.08839489,0.0001071,53.2167,115.7823,85.9821,274.1294,5.0852e-05,5.22e-06,0.0,0 STARLINK-3637,1 51799U 22017AH  23254.35254338  .00000522  00000-0  50852-4 0  9995,2 51799  53.2167 115.7823 0001071  85.9821 274.1294 15.08839489 86497,6917.882,95.438,540.488,539.006,0.0
51799.0,STARLINK-3637,PAYLOAD,2023-09-12 00:21:30,15.0884685,0.0001139,53.217,112.806,90.3779,269.7343,2.7749e-05,1.54e-06,0.0,0 STARLINK-3637,1 51799U 22017AH  23255.01493894  .00000154  00000-0  27749-4 0  9991,2 51799  53.2170 112.8060 0001139  90.3779 269.7343 15.08846850 86595,6917.859,95.437,540.512,538.937,0.0
51799.0,STARLINK-3637,PAYLOAD,2023-09-12 17:50:45,15.08844625,9.91e-05,53.2176,109.534,98.3108,261.7996,-2.8804e-05,-7.46e-06,0.0,0 STARLINK-3637,1 51799U 22017AH  23255.74358232 -.00000746  00000-0 -28804-4 0  9999,2 51799  53.2176 109.5340 0000991  98.3108 261.7996 15.08844625 86701,6917.866,95.437,540.417,539.046,0.0
51799.0,STARLINK-3637,PAYLOAD,2023-09-12 19:26:08,15.0884563,0.0001192,53.2179,109.2362,110.5491,249.5629,1.1453e-06,-2.7e-06,0.0,0 STARLINK-3637,1 51799U 22017AH  23255.80982052 -.00000270  00000-0  11453-5 0  9993,2 51799  53.2179 109.2362 0001192 110.5491 249.5629 15.08845630 86716,6917.863,95.437,540.553,538.904,0.0
51799.0,STARLINK-3637,PAYLOAD,2023-09-12 22:36:54,15.08848264,0.0001257,53.2175,108.6421,108.9754,251.1374,6.1362e-05,6.89e-06,0.0,0 STARLINK-3637,1 51799U 22017AH  23255.94229697  .00000689  00000-0  61362-4 0  9993,2 51799  53.2175 108.6421 0001257 108.9754 251.1374 15.08848264 86730,6917.855,95.437,540.59,538.851,0.0
51799.0,STARLINK-3637,PAYLOAD,2023-09-13 17:41:32,15.08845303,0.0001294,53.2171,105.0741,94.8808,265.2332,7.826e-05,9.58e-06,0.0,0 STARLINK-3637,1 51799U 22017AH  23256.73717718  .00000958  00000-0  78260-4 0  9991,2 51799  53.2171 105.0741 0001294  94.8808 265.2332 15.08845303 86850,6917.864,95.437,540.624,538.834,0.0
51799.0,STARLINK-3637,PAYLOAD,2023-09-13 20:52:18,15.08845305,0.0001282,53.2177,104.4784,97.1119,263.0018,9.1003e-05,1.161e-05,0.0,0 STARLINK-3637,1 51799U 22017AH  23256.86965631  .00001161  00000-0  91003-4 0  9991,2 51799  53.2177 104.4784 0001282  97.1119 263.0018 15.08845305 86875,6917.864,95.437,540.616,538.842,0.0
51799.0,STARLINK-3637,PAYLOAD,2023-09-14 12:46:10,15.08830279,0.0001397,53.2175,101.5048,131.6021,228.5091,-8.3248e-06,-4.2e-06,0.0,0 STARLINK-3637,1 51799U 22017AH  23257.53206903 -.00000420  00000-0 -83248-5 0  9998,2 51799  53.2175 101.5048 0001397 131.6021 228.5091 15.08830279 86979,6917.91,95.438,540.742,538.809,0.0
51799.0,STARLINK-3637,PAYLOAD,2023-09-14 17:32:20,15.08834581,0.0001401,53.2174,100.6133,112.916,247.198,-3.9685e-05,-9.19e-06,0.0,0 STARLINK-3637,1 51799U 22017AH  23257.73078910 -.00000919  00000-0 -39685-4 0  9993,2 51799  53.2174 100.6133 0001401 112.9160 247.1980 15.08834581 87004,6917.897,95.438,540.731,538.793,0.0
